RAVAN                   
1 41849U 16067B   23169.67557745  .00006015  00000+0  41782-3 0  9999
2 41849  98.0367 324.1768 0016381 178.6284 181.4989 15.05842533360990
CELTEE 1                
1 41850U 16067C   23169.68139692  .00004113  00000+0  32164-3 0  9990
2 41850  98.0666 317.8652 0000852 204.9861 155.1321 15.01662649360649
OPTICUBE 04             
1 41851U 16067D   23169.66809109  .00002632  00000+0  21785-3 0  9997
2 41851  98.0430 316.0417 0012136 193.4333 166.6568 14.99766746360552
AEROCUBE 8D             
1 41852U 16067E   23169.98445201  .00003670  00000+0  28489-3 0  9993
2 41852  98.0669 317.2878 0004094 235.5156 124.5681 15.02020726360630
AEROCUBE 8C             
1 41853U 16067F   23169.84389111  .00003972  00000+0  30863-3 0  9990
2 41853  98.0448 316.6789 0008865 174.8315 185.3002 15.01899190360609
PROMETHEUS 2-1          
1 41854U 16067G   23169.69138455  .00008662  00000+0  60300-3 0  9997
2 41854  98.0687 319.5270 0016726 208.0104 152.0223 15.05615898360716
PROMETHEUS 2-3          
1 41855U 16067H   23169.68458572  .00008396  00000+0  58533-3 0  9991
2 41855  98.0608 319.3785 0013922 216.3455 143.6826 15.05604849360714
INS-1B                  
1 41954U 17008G   23169.43472942  .00071652  00000+0  96435-3 0  9995
2 41954  97.1990 230.0883 0001821  13.6275 346.5030 15.57627269353079
DIDO-2                  
1 42000U 17008BE  23169.40595785  .00017270  00000+0  43513-3 0  9991
2 42000  97.2006 225.4617 0006383  46.1537 314.0236 15.39932515352120
PEASSS                  
1 42015U 17008BV  23169.44317273  .00049130  00000+0  80617-3 0  9991
2 42015  97.2069 232.9201 0002681  34.9692 325.1737 15.52283357353051
AL-FARABI 1             
1 42016U 17008BW  23170.14857483  .00246577  00000+0  13303-2 0  9994
2 42016  97.2096 241.3686 0003552 227.4087 132.6881 15.79472436353731
NAYIF-1 (EO-88)         
1 42017U 17008BX  23170.17002987  .00297194  00000+0  14022-2 0  9999
2 42017  97.2065 241.6233 0004048 232.8597 127.2303 15.82281605353780
UCLSAT                  
1 42765U 17036A   23170.06701600  .00050945  00000+0  85208-3 0  9992
2 42765  97.1407 208.9962 0007113  96.3608 263.8455 15.51715138333586
AALTO-1                 
1 42775U 17036L   23170.02559844  .00017709  00000+0  51264-3 0  9996
2 42775  97.1509 200.0160 0011914 100.0137 260.2452 15.35574939332803
URSA MAIOR              
1 42776U 17036M   23169.82592366  .00020272  00000+0  55119-3 0  9991
2 42776  97.1519 201.1643 0011488  98.2313 262.0235 15.37508227332845
COMPASS 2               
1 42777U 17036N   23170.07900577  .01347525  10972-2  19705-2 0  9994
2 42777  97.1235 216.8957 0008273 226.5744 133.4850 16.05348981333844
DIAMOND RED             
1 42783U 17036U   23169.60685442  .00024182  00000+0  59399-3 0  9991
2 42783  97.1498 204.2673 0009757 102.2564 257.9776 15.40610760333019
PEGASUS                 
1 42784U 17036V   23169.83057814  .00039967  00000+0  77856-3 0  9998
2 42784  97.1454 207.2247 0008671  96.4249 263.7989 15.47403559333238
DIAMOND GREEN           
1 42785U 17036W   23170.06121761  .00027953  00000+0  66282-3 0  9992
2 42785  97.1491 204.9191 0009543 101.8367 258.3951 15.41653285333082
DIAMOND BLUE            
1 42786U 17036X   23170.08672542  .00028962  00000+0  69607-3 0  9998
2 42786  97.1494 204.8836 0009790 101.1716 259.0633 15.41235611333080
SUCHAI                  
1 42788U 17036Z   23169.83903939  .00076466  00000+0  10224-2 0  9990
2 42788  97.1430 211.0301 0006795 100.0473 260.1550 15.57761725333559
SKCUBE                  
1 42789U 17036AA  23169.85469040  .00051100  00000+0  84112-3 0  9999
2 42789  97.1426 209.4416 0007885  94.6299 265.5854 15.52156316333373
ROBUSTA 1B              
1 42792U 17036AD  23169.36323005  .00067996  00000+0  98437-3 0  9994
2 42792  97.1410 210.2083 0006426  98.0833 262.1151 15.55646400333398
CICERO 6                
1 42793U 17036AE  23170.03338092  .00020595  00000+0  53472-3 0  9997
2 42793  97.1482 204.8154 0008990 101.1915 259.0342 15.38954925333180
CORVUS BC2              
1 42846U 17042X   23169.80161367  .00001829  00000+0  17325-3 0  9991
2 42846  97.3861  10.8904 0008326 197.7648 162.3284 14.94728922322969
CORVUS BC1              
1 42847U 17042Y   23169.52500682  .00002372  00000+0  22270-3 0  9997
2 42847  97.3860  10.9860 0007995 196.2512 163.8454 14.94820588322939
MIRATA                  
1 43015U 17073C   23169.62584724  .00016067  00000+0  99970-3 0  9996
2 43015  97.6342  57.3468 0212650  50.4337 311.5455 14.92760092301702
MAKERSAT 0              
1 43016U 17073D   23169.12465755  .00010095  00000+0  67377-3 0  9995
2 43016  97.6329  54.9702 0227638  61.3613 301.0292 14.88384995301456
CORVUS BC3              
1 43118U 18004H   23169.44699234  .00016911  00000+0  44569-3 0  9990
2 43118  97.3247 243.7801 0008516 136.2842 223.9079 15.38543735302238
CICERO 7                
1 43143U 18004AJ  23169.70871312  .00056183  00000+0  82545-3 0  9997
2 43143  97.3411 256.3920 0004180 127.8110 232.3523 15.55304807302993
GOMX-4B                 
1 43196U 18015E   23169.64189842  .00016301  00000+0  45889-3 0  9998
2 43196  97.5785 320.5685 0014394 196.0646 164.0143 15.36445588299174
GOMX-4A                 
1 43197U 18015F   23170.16366556  .00019430  00000+0  49098-3 0  9999
2 43197  97.5786 323.2137 0013835 189.3704 170.7285 15.39750722299406
AEROCUBE 12B            
1 43557U 18046D   23170.03996846  .00139729  00000+0  93218-3 0  9997
2 43557  51.6231 176.3519 0007340 354.2092   5.8821 15.74377278276005
CUBEBEL-1 (BSUSAT-1)    
1 43666U 18083E   23170.15533150  .00032635  00000+0  86581-3 0  9990
2 43666  97.3790 201.7668 0011517 115.1550 245.0891 15.38175561257505
CICERO 10               
1 43690U 18088A   23169.99068756  .00017429  00000+0  48757-3 0  9994
2 43690  85.0321  71.3383 0008786 211.9459 148.1259 15.36495819255753
PROXIMA I               
1 43694U 18088E   23170.14271933  .00022513  00000+0  57490-3 0  9994
2 43694  85.0250  66.8797 0012598 175.2370 184.9003 15.39266618256073
PROXIMA II              
1 43696U 18088G   23169.70151823  .00020930  00000+0  53713-3 0  9996
2 43696  85.0255  67.2289 0012648 176.9959 183.1371 15.39115494256005
SIRION PATHFINDER-2     
1 43759U 18099B   23170.05864278  .00004221  00000+0  35429-3 0  9992
2 43759  97.5733 231.6905 0015647 107.6166 252.6767 14.98771507247906
CORVUS BC4              
1 43767U 18099K   23170.15710312  .00003429  00000+0  29325-3 0  9998
2 43767  97.5659 229.7386 0011833 115.7234 244.5212 14.98206341247827
MOVE-II                 
1 43780U 18099Y   23169.63436869  .00008573  00000+0  62741-3 0  9990
2 43780  97.5722 233.6297 0010684 140.4900 219.7106 15.03776727247953
SPACEBEE-7              
1 43816U 18099BL  23169.61534618  .00006554  00000+0  49638-3 0  9996
2 43816  97.5952 234.4307 0013313  92.9699 267.3050 15.02550387247528
SPACEBEE-5              
1 43817U 18099BM  23170.14036880  .00034592  00000+0  17211-2 0  9999
2 43817  97.5923 242.2052 0004791  99.8542 260.3232 15.17518942247997
SPACEBEE-6              
1 43818U 18099BN  23169.43247200  .00011325  00000+0  77726-3 0  9997
2 43818  97.5893 236.2935 0013789 110.2506 250.0205 15.06076860247758
SHIELDS 1               
1 43850U 18104B   23169.72106538  .00007061  00000+0  25220-3 0  9994
2 43850  85.0258 168.4522 0012693   4.2563 355.8788 15.28567868250343
STF-1                   
1 43852U 18104D   23169.76994844  .00029890  00000+0  67442-3 0  9991
2 43852  85.0230 166.1522 0009110  13.1550 346.9939 15.43036620250641
ZACUBE-2                
1 43907U 18111AH  23170.15089457  .00024897  00000+0  60942-3 0  9990
2 43907  97.1380  49.7115 0014228 197.4879 162.5880 15.40654699249455
LUME 1                  
1 43908U 18111AJ  23169.95696243  .00030830  00000+0  61697-3 0  9996
2 43908  97.1399  53.1912 0012651 181.5718 178.5495 15.46626019249667
MOVE-IIB                
1 44398U 19038N   23169.46178951  .00048169  00000+0  11740-2 0  9993
2 44398  97.6583 152.3346 0009973 283.4574  76.5560 15.40704344218869
SONATE                  
1 44400U 19038Q   23169.48111139  .00009055  00000+0  40559-3 0  9996
2 44400  97.6833 147.1529 0018838 311.0657  48.8950 15.21335832218435
LUCKY-7                 
1 44406U 19038W   23169.69263191  .00013053  00000+0  53694-3 0  9998
2 44406  97.6798 148.6520 0016908 304.7548  55.2096 15.24157632218551
BEESAT 9                
1 44412U 19038AC  23169.71523035  .00021726  00000+0  74650-3 0  9995
2 44412  97.6736 150.4035 0012886 303.6988  56.3022 15.30053544218396
JAISAT-1                
1 44419U 19038F   23169.99159729  .00020490  00000+0  69751-3 0  9990
2 44419  97.6728 151.7727 0011979 298.6054  61.3980 15.30379480218811
DUCHIFAT-3              
1 44854U 19089C   23170.12924785  .00008263  00000+0  55607-3 0  9997
2 44854  36.9627  79.6805 0009863 323.7928  36.2147 15.06276729193129
EYESAT-NANO             
1 44877U 19092E   23169.49472426  .00048814  00000+0  11244-2 0  9998
2 44877  97.4566 359.9548 0008680 137.4344 222.7577 15.42417262194303
M2 PATHFINDER           
1 45727U 20037E   23169.73658571  .00002310  00000+0  22158-3 0  9996
2 45727  97.7567 344.4413 0010874 257.9144 102.0858 14.94051754161476
NETSAT-4                
1 46504U 20068U   23169.37276060  .00005313  00000+0  35262-3 0  9999
2 46504  97.7637 115.1952 0011869 155.6780 204.5010 15.07623966149080
NETSAT-3                
1 46505U 20068V   23169.80442330  .00005733  00000+0  38197-3 0  9999
2 46505  97.7611 115.4533 0010551 163.5206 196.6366 15.07455924149159
NETSAT-1                
1 46506U 20068W   23169.64864782  .00004458  00000+0  30053-3 0  9997
2 46506  97.7631 115.1748 0008720 170.2434 189.8964 15.07156298149127
NETSAT-2                
1 46507U 20068X   23169.56990668  .00005198  00000+0  34591-3 0  9995
2 46507  97.7625 115.1384 0007876 174.5637 185.5677 15.07560380149068
